[{"OBJECT_NAME":"LARES","OBJECT_ID":"2012-006A","EPOCH":"2026-03-09T21:40:03.905472","MEAN_MOTION":12.54932279,"ECCENTRICITY":0.00073453,"INCLINATION":69.4885,"RA_OF_ASC_NODE":101.835,"ARG_OF_PERICENTER":150.069,"MEAN_ANOMALY":210.0758,"EPHEMERIS_TYPE":0,"CLASSIFICATION_TYPE":"U","NORAD_CAT_ID":38077,"ELEMENT_SET_NO":999,"REV_AT_EPOCH":64461,"BSTAR":-7.5970423e-5,"MEAN_MOTION_DOT":-5.1e-7,"MEAN_MOTION_DDOT":0},{"OBJECT_NAME":"COSMOS 2251 DEB","OBJECT_ID":"1993-036ANM","EPOCH":"2026-03-09T06:50:41.056224","MEAN_MOTION":13.40993201,"ECCENTRICITY":0.04573088,"INCLINATION":73.8684,"RA_OF_ASC_NODE":278.6925,"ARG_OF_PERICENTER":13.861,"MEAN_ANOMALY":98.4986,"EPHEMERIS_TYPE":0,"CLASSIFICATION_TYPE":"U","NORAD_CAT_ID":35646,"ELEMENT_SET_NO":999,"REV_AT_EPOCH":83018,"BSTAR":0.00081604473,"MEAN_MOTION_DOT":8.14e-6,"MEAN_MOTION_DDOT":0}]
